{
  "type": "FeatureCollection",
  "features": [
    {
      "type": "Feature",
      "properties": {
        "norad_id": 39773,
        "name": "EUTELSAT 3B",
        "group": "eutelsat",
        "lat": 0.053331462482214924,
        "lon": 133.2293216829354,
        "alt_km": 35788.21299388844,
        "timestamp": "2025-12-04T03:47:54.225341+00:00",
        "meta_object_name": "EUTELSAT 3B",
        "meta_object_id": "2014-030A",
        "meta_epoch": "2025-12-03T18:42:38.602944",
        "meta_mean_motion": 1.00270877,
        "meta_eccentricity": 0.0004781,
        "meta_inclination": 0.0635,
        "meta_ra_of_asc_node": 3.048,
        "meta_arg_of_pericenter": 225.3781,
        "meta_mean_anomaly": 128.1935,
        "meta_ephemeris_type": 0,
        "meta_classification_type": "U",
        "meta_norad_cat_id": 39773,
        "meta_element_set_no": 999,
        "meta_rev_at_epoch": 4210,
        "meta_bstar": 0,
        "meta_mean_motion_dot": 3.7e-07,
        "meta_mean_motion_ddot": 0,
        "tle_line1": "1 39773U 14030A   25337.77961346  .00000037  00000+0  00000+0 0  9998",
        "tle_line2": "2 39773   0.0635   3.0480 0004781 225.3781 128.1935  1.00270877 42106"
      },
      "geometry": {
        "type": "Point",
        "coordinates": [
          133.2293216829354,
          0.053331462482214924
        ]
      }
    },
    {
      "type": "Feature",
      "properties": {
        "norad_id": 40425,
        "name": "EUTELSAT 115 WEST B",
        "group": "eutelsat",
        "lat": -0.00924566682064861,
        "lon": 15.293490197645935,
        "alt_km": 35785.849762344216,
        "timestamp": "2025-12-04T03:47:54.225353+00:00",
        "meta_object_name": "EUTELSAT 115 WEST B",
        "meta_object_id": "2015-010B",
        "meta_epoch": "2025-12-03T16:37:59.708352",
        "meta_mean_motion": 1.00270514,
        "meta_eccentricity": 4.79e-05,
        "meta_inclination": 0.0142,
        "meta_ra_of_asc_node": 147.7315,
        "meta_arg_of_pericenter": 301.2332,
        "meta_mean_anomaly": 118.4232,
        "meta_ephemeris_type": 0,
        "meta_classification_type": "U",
        "meta_norad_cat_id": 40425,
        "meta_element_set_no": 999,
        "meta_rev_at_epoch": 3943,
        "meta_bstar": 0,
        "meta_mean_motion_dot": -7e-08,
        "meta_mean_motion_ddot": 0,
        "tle_line1": "1 40425U 15010B   25337.69305218 -.00000007  00000+0  00000+0 0  9992",
        "tle_line2": "2 40425   0.0142 147.7315 0000479 301.2332 118.4232  1.00270514 39436"
      },
      "geometry": {
        "type": "Point",
        "coordinates": [
          15.293490197645935,
          -0.00924566682064861
        ]
      }
    },
    {
      "type": "Feature",
      "properties": {
        "norad_id": 40875,
        "name": "EUTELSAT 8 WEST B",
        "group": "eutelsat",
        "lat": 0.05676302117720837,
        "lon": 122.16213530387462,
        "alt_km": 35798.03851368904,
        "timestamp": "2025-12-04T03:47:54.225365+00:00",
        "meta_object_name": "EUTELSAT 8 WEST B",
        "meta_object_id": "2015-039B",
        "meta_epoch": "2025-12-03T18:42:38.602944",
        "meta_mean_motion": 1.00271603,
        "meta_eccentricity": 0.0004137,
        "meta_inclination": 0.0656,
        "meta_ra_of_asc_node": 348.0497,
        "meta_arg_of_pericenter": 266.975,
        "meta_mean_anomaly": 90.5072,
        "meta_ephemeris_type": 0,
        "meta_classification_type": "U",
        "meta_norad_cat_id": 40875,
        "meta_element_set_no": 999,
        "meta_rev_at_epoch": 3769,
        "meta_bstar": 0,
        "meta_mean_motion_dot": -4.8e-07,
        "meta_mean_motion_ddot": 0,
        "tle_line1": "1 40875U 15039B   25337.77961346 -.00000048  00000+0  00000+0 0  9996",
        "tle_line2": "2 40875   0.0656 348.0497 0004137 266.9750  90.5072  1.00271603 37696"
      },
      "geometry": {
        "type": "Point",
        "coordinates": [
          122.16213530387462,
          0.05676302117720837
        ]
      }
    },
    {
      "type": "Feature",
      "properties": {
        "norad_id": 41310,
        "name": "EUTELSAT 9B",
        "group": "eutelsat",
        "lat": 0.056509864551196845,
        "lon": 139.12985971961743,
        "alt_km": 35798.3493367605,
        "timestamp": "2025-12-04T03:47:54.225377+00:00",
        "meta_object_name": "EUTELSAT 9B",
        "meta_object_id": "2016-005A",
        "meta_epoch": "2025-12-03T17:13:26.313024",
        "meta_mean_motion": 1.00271389,
        "meta_eccentricity": 0.0004931,
        "meta_inclination": 0.0665,
        "meta_ra_of_asc_node": 75.1614,
        "meta_arg_of_pericenter": 189.8665,
        "meta_mean_anomaly": 75.1206,
        "meta_ephemeris_type": 0,
        "meta_classification_type": "U",
        "meta_norad_cat_id": 41310,
        "meta_element_set_no": 999,
        "meta_rev_at_epoch": 3615,
        "meta_bstar": 0,
        "meta_mean_motion_dot": 7.9e-07,
        "meta_mean_motion_ddot": 0,
        "tle_line1": "1 41310U 16005A   25337.71766566  .00000079  00000+0  00000+0 0  9999",
        "tle_line2": "2 41310   0.0665  75.1614 0004931 189.8665  75.1206  1.00271389 36159"
      },
      "geometry": {
        "type": "Point",
        "coordinates": [
          139.12985971961743,
          0.056509864551196845
        ]
      }
    },
    {
      "type": "Feature",
      "properties": {
        "norad_id": 41382,
        "name": "EUTELSAT 65 WEST A",
        "group": "eutelsat",
        "lat": 0.0741051705755486,
        "lon": 64.99597953789564,
        "alt_km": 35797.878926566606,
        "timestamp": "2025-12-04T03:47:54.225389+00:00",
        "meta_object_name": "EUTELSAT 65 WEST A",
        "meta_object_id": "2016-014A",
        "meta_epoch": "2025-12-03T10:01:12.190080",
        "meta_mean_motion": 1.00270652,
        "meta_eccentricity": 0.000278,
        "meta_inclination": 0.0504,
        "meta_ra_of_asc_node": 344.5568,
        "meta_arg_of_pericenter": 274.9702,
        "meta_mean_anomaly": 258.0819,
        "meta_ephemeris_type": 0,
        "meta_classification_type": "U",
        "meta_norad_cat_id": 41382,
        "meta_element_set_no": 999,
        "meta_rev_at_epoch": 3557,
        "meta_bstar": 0,
        "meta_mean_motion_dot": -2.58e-06,
        "meta_mean_motion_ddot": 0,
        "tle_line1": "1 41382U 16014A   25337.41750220 -.00000258  00000+0  00000+0 0  9995",
        "tle_line2": "2 41382   0.0504 344.5568 0002780 274.9702 258.0819  1.00270652 35578"
      },
      "geometry": {
        "type": "Point",
        "coordinates": [
          64.99597953789564,
          0.0741051705755486
        ]
      }
    },
    {
      "type": "Feature",
      "properties": {
        "norad_id": 41589,
        "name": "EUTELSAT 117 WEST B",
        "group": "eutelsat",
        "lat": -0.014402421730980917,
        "lon": 13.181701328473476,
        "alt_km": 35787.460246657705,
        "timestamp": "2025-12-04T03:47:54.225401+00:00",
        "meta_object_name": "EUTELSAT 117 WEST B",
        "meta_object_id": "2016-038B",
        "meta_epoch": "2025-12-03T16:37:22.266912",
        "meta_mean_motion": 1.002675,
        "meta_eccentricity": 2.71e-05,
        "meta_inclination": 0.0072,
        "meta_ra_of_asc_node": 146.0291,
        "meta_arg_of_pericenter": 327.1169,
        "meta_mean_anomaly": 91.9765,
        "meta_ephemeris_type": 0,
        "meta_classification_type": "U",
        "meta_norad_cat_id": 41589,
        "meta_element_set_no": 999,
        "meta_rev_at_epoch": 3470,
        "meta_bstar": 0,
        "meta_mean_motion_dot": 7e-08,
        "meta_mean_motion_ddot": 0,
        "tle_line1": "1 41589U 16038B   25337.69261883  .00000007  00000+0  00000+0 0  9993",
        "tle_line2": "2 41589   0.0072 146.0291 0000271 327.1169  91.9765  1.00267500 34702"
      },
      "geometry": {
        "type": "Point",
        "coordinates": [
          13.181701328473476,
          -0.014402421730980917
        ]
      }
    },
    {
      "type": "Feature",
      "properties": {
        "norad_id": 42741,
        "name": "EUTELSAT 172B",
        "group": "eutelsat",
        "lat": -0.0008763081110561234,
        "lon": -57.809980901120454,
        "alt_km": 35785.963749688795,
        "timestamp": "2025-12-04T03:47:54.225413+00:00",
        "meta_object_name": "EUTELSAT 172B",
        "meta_object_id": "2017-029B",
        "meta_epoch": "2025-12-03T17:18:38.540160",
        "meta_mean_motion": 1.00271292,
        "meta_eccentricity": 1.91e-05,
        "meta_inclination": 0.0029,
        "meta_ra_of_asc_node": 53.9145,
        "meta_arg_of_pericenter": 175.2679,
        "meta_mean_anomaly": 275.2829,
        "meta_ephemeris_type": 0,
        "meta_classification_type": "U",
        "meta_norad_cat_id": 42741,
        "meta_element_set_no": 999,
        "meta_rev_at_epoch": 3177,
        "meta_bstar": 0,
        "meta_mean_motion_dot": 1.2e-07,
        "meta_mean_motion_ddot": 0,
        "tle_line1": "1 42741U 17029B   25337.72127940  .00000012  00000+0  00000+0 0  9990",
        "tle_line2": "2 42741   0.0029  53.9145 0000191 175.2679 275.2829  1.00271292 31773"
      },
      "geometry": {
        "type": "Point",
        "coordinates": [
          -57.809980901120454,
          -0.0008763081110561234
        ]
      }
    }
  ]
}